[{"OBJECT_NAME":"ICEYE-X7","OBJECT_ID":"2020-068L","EPOCH":"2026-03-09T22:52:28.702272","MEAN_MOTION":15.29152508,"ECCENTRICITY":0.00068409,"INCLINATION":97.7412,"RA_OF_ASC_NODE":31.2076,"ARG_OF_PERICENTER":332.3045,"MEAN_ANOMALY":27.7829,"EPHEMERIS_TYPE":0,"CLASSIFICATION_TYPE":"U","NORAD_CAT_ID":46496,"ELEMENT_SET_NO":999,"REV_AT_EPOCH":29961,"BSTAR":0.0005654802,"MEAN_MOTION_DOT":0.00015947,"MEAN_MOTION_DDOT":0},{"OBJECT_NAME":"STARLINK-34812","OBJECT_ID":"2025-232X","EPOCH":"2026-03-09T12:14:45.000384","MEAN_MOTION":15.30195578,"ECCENTRICITY":0.00012224,"INCLINATION":53.1585,"RA_OF_ASC_NODE":105.0533,"ARG_OF_PERICENTER":76.6476,"MEAN_ANOMALY":283.4661,"EPHEMERIS_TYPE":0,"CLASSIFICATION_TYPE":"U","NORAD_CAT_ID":66026,"ELEMENT_SET_NO":999,"REV_AT_EPOCH":2339,"BSTAR":0.00090441164,"MEAN_MOTION_DOT":0.00026519,"MEAN_MOTION_DDOT":0}]
